OBJECT_NAME,OBJECT_ID,EPOCH,MEAN_MOTION,ECCENTRICITY,INCLINATION,RA_OF_ASC_NODE,ARG_OF_PERICENTER,MEAN_ANOMALY,EPHEMERIS_TYPE,CLASSIFICATION_TYPE,NORAD_CAT_ID,ELEMENT_SET_NO,REV_AT_EPOCH,BSTAR,MEAN_MOTION_DOT,MEAN_MOTION_DDOT
SIRION PATHFINDER-2,2018-099B,2026-06-18T16:49:54.106752,15.14558383,.00071597,97.4247,218.7229,298.4838,61.5672,0,U,43759,999,41285,.20155535E-3,.3653E-4,0
CORVUS BC4,2018-099K,2026-06-18T21:48:06.890112,15.12507127,.00081097,97.4062,212.8385,7.7786,352.3570,0,U,43767,999,41266,.17962232E-3,.3066E-4,0
M2 PATHFINDER,2020-037E,2026-06-18T18:37:16.978944,15.04680225,.00125783,97.8146,1.0255,141.5732,218.6392,0,U,45727,999,32573,.93452203E-4,.1252E-4,0
NETSAT-4,2020-068U,2026-06-18T22:32:59.425152,15.43911381,.0003638,97.8604,178.3212,330.0915,30.0123,0,U,46504,999,31604,.2977972E-3,.13444E-3,0
NETSAT-3,2020-068V,2026-06-18T22:43:57.736992,15.42729278,.00039696,97.8651,176.5434,354.3886,5.7315,0,U,46505,999,31595,.3324197E-3,.14435E-3,0
NETSAT-1,2020-068W,2026-06-18T10:32:51.350208,15.34667272,.0004889,97.8747,170.3121,28.7816,331.3694,0,U,46506,999,31549,.29212E-3,.9731E-4,0
NETSAT-2,2020-068X,2026-06-18T23:27:10.618272,15.46061817,.00032901,97.8613,178.2623,20.9821,339.1561,0,U,46507,999,31601,.36479759E-3,.17754E-3,0
GREENCUBE (IO-117),2022-080E,2026-06-18T10:18:19.245024,6.42583246,.0008904,70.1442,297.8130,289.4279,70.5418,0,U,53109,999,9214,0,-.3E-7,0
SITRO-AIS 5 (KATYS),2023-091L,2026-06-18T21:38:40.873344,15.29488777,.00127429,97.5056,233.8178,98.2848,261.9837,0,U,57176,999,16460,.32570453E-3,.9257E-4,0
SITRO-AIS 6 (CHIRKIN),2023-091AC,2026-06-18T22:48:29.522880,15.25961511,.00131003,97.5063,232.9764,101.0843,259.1869,0,U,57192,999,16455,.29881978E-3,.7619E-4,0
SITRO-AIS 8 (ANOKHIN),2023-091AD,2026-06-18T21:58:52.750848,15.32175361,.00117601,97.5052,235.4274,94.7065,265.5520,0,U,57193,999,16471,.37164305E-3,.11494E-3,0
SITRO-AIS 7 (FARTUSHNIY),2023-091AE,2026-06-18T22:53:32.709120,15.25649375,.0012962,97.5060,232.8041,101.9813,258.2878,0,U,57194,999,16454,.29417754E-3,.7429E-4,0
SITRO-AIS 10 (BURDAEV),2023-091AK,2026-06-18T22:33:49.458528,15.38666790,.00073946,97.5077,240.5243,75.0063,285.2000,0,U,57199,999,16503,.41494406E-3,.15792E-3,0
SITRO-AIS 9 (SHCHUKIN),2023-091AM,2026-06-18T23:12:38.836224,15.38173893,.00076498,97.5076,240.2807,75.1418,285.0674,0,U,57201,999,16502,.40810995E-3,.15283E-3,0
SITRO-AIS 12 (SMIRENNIY),2023-091AQ,2026-06-18T22:58:39.254592,15.38466797,.00071687,97.5089,240.7390,70.2278,289.9740,0,U,57204,999,16504,.4110363E-3,.1554E-3,0
SITRO-AIS 11 (SHEFFER),2023-091AU,2026-06-18T23:17:16.060992,15.38892933,.00070625,97.5087,240.9999,70.0368,290.1637,0,U,57208,999,16506,.4082749E-3,.15651E-3,0
SITRO-AIS 25,2024-039R,2026-06-18T23:37:09.513696,14.93520908,.01432841,95.3913,236.3274,322.4295,36.6984,0,U,59066,999,12499,.17157329E-3,.2175E-4,0
SITRO-AIS 26,2024-039S,2026-06-18T23:39:29.295936,14.93316634,.01436411,95.3910,236.2258,323.0139,36.1249,0,U,59067,999,12498,.16783209E-3,.2116E-4,0
SITRO-AIS 27,2024-039T,2026-06-18T22:55:54.717024,14.93736899,.01426824,95.3914,236.4775,321.7195,37.3967,0,U,59068,999,12500,.15124778E-3,.1921E-4,0
SITRO-AIS 28,2024-039U,2026-06-18T22:23:22.591104,14.93770717,.01425537,95.3912,236.5094,321.6314,37.4837,0,U,59071,999,12500,.17598676E-3,.2242E-4,0
GRBBETA,2024-128C,2026-06-18T09:57:07.269408,15.06645417,.0040487,61.9881,211.9597,134.9163,225.5227,0,U,60237,999,10645,.16766E-3,.2322E-4,0
OOV-CUBE (TUBSAT-30),2024-128F,2026-06-18T14:03:38.934720,15.02778203,.0044464,61.9932,220.6959,134.0792,226.3973,0,U,60240,999,10632,.11902E-3,.1416E-4,0
ROBUSTA-3A (MEDITERRANEE),2024-128J,2026-06-18T18:55:28.399296,15.11688886,.00412203,61.9845,202.5810,128.2234,232.2584,0,U,60243,999,10666,.24711042E-3,.4083E-4,0
LASARSAT,2024-247Q,2026-06-16T23:25:46.453440,15.46364825,.000818,44.9742,263.4006,330.0323,30.0098,0,U,62391,999,8328,.52389176E-3,.26221E-3,0
CROCUBE,2024-247T,2026-06-17T16:25:00.765696,15.48292245,.00079679,44.9716,256.7472,338.3414,21.7139,0,U,62394,999,8342,.53654775E-3,.2875E-3,0
FORESAIL-1 PRIME,2025-276DS,2026-06-18T12:17:14.952768,15.18712200,.0003953,97.4198,242.7588,100.5303,259.6377,0,U,66778,999,3060,.17953E-3,.3659E-4,0
KNACKSAT-2,1998-067XZ,2026-06-17T14:33:42.297120,15.60014370,.0009088,51.6314,292.3670,217.1010,142.9356,0,U,67683,999,2034,.49993E-3,.40994E-3,0
